{
  "type": "FeatureCollection",
  "features": [
    {
      "type": "Feature",
      "properties": {
        "norad_id": 66432,
        "name": "STARLINK-35446",
        "group": "last-30-days",
        "lat": -20.16620183029444,
        "lon": 52.712291995268764,
        "alt_km": 443.2695830496714,
        "timestamp": "2025-12-07T20:38:12.865985+00:00",
        "meta_object_name": "STARLINK-35446",
        "meta_object_id": "2025-259L",
        "meta_epoch": "2025-12-07T06:00:04.999968",
        "meta_mean_motion": 15.43989965,
        "meta_eccentricity": 0.00011116,
        "meta_inclination": 43.0009,
        "meta_ra_of_asc_node": 79.4475,
        "meta_arg_of_pericenter": 280.4469,
        "meta_mean_anomaly": 258.5689,
        "meta_ephemeris_type": 0,
        "meta_classification_type": "U",
        "meta_norad_cat_id": 66432,
        "meta_element_set_no": 999,
        "meta_rev_at_epoch": 539,
        "meta_bstar": -0.048312315,
        "meta_mean_motion_dot": -0.0200805,
        "meta_mean_motion_ddot": 0,
        "tle_line1": "1 66432U 25259L   25341.25005787 -.02008050  00000+0 -48312-1 0  9998",
        "tle_line2": "2 66432  43.0009  79.4475 0001111 280.4469 258.5689 15.43989965  5391"
      },
      "geometry": {
        "type": "Point",
        "coordinates": [
          52.712291995268764,
          -20.16620183029444
        ]
      }
    },
    {
      "type": "Feature",
      "properties": {
        "norad_id": 66433,
        "name": "STARLINK-35457",
        "group": "last-30-days",
        "lat": -12.991721514289239,
        "lon": 61.56134446260324,
        "alt_km": 438.9229490501939,
        "timestamp": "2025-12-07T20:38:12.865996+00:00",
        "meta_object_name": "STARLINK-35457",
        "meta_object_id": "2025-259M",
        "meta_epoch": "2025-12-07T06:00:04.999968",
        "meta_mean_motion": 15.45310327,
        "meta_eccentricity": 9.269e-05,
        "meta_inclination": 43.0002,
        "meta_ra_of_asc_node": 79.4283,
        "meta_arg_of_pericenter": 276.6802,
        "meta_mean_anomaly": 270.5523,
        "meta_ephemeris_type": 0,
        "meta_classification_type": "U",
        "meta_norad_cat_id": 66433,
        "meta_element_set_no": 999,
        "meta_rev_at_epoch": 539,
        "meta_bstar": -0.046125626,
        "meta_mean_motion_dot": -0.02006435,
        "meta_mean_motion_ddot": 0,
        "tle_line1": "1 66433U 25259M   25341.25005787 -.02006435  00000+0 -46126-1 0  9995",
        "tle_line2": "2 66433  43.0002  79.4283 0000926 276.6802 270.5523 15.45310327  5396"
      },
      "geometry": {
        "type": "Point",
        "coordinates": [
          61.56134446260324,
          -12.991721514289239
        ]
      }
    },
    {
      "type": "Feature",
      "properties": {
        "norad_id": 66434,
        "name": "STARLINK-35389",
        "group": "last-30-days",
        "lat": -6.492130784189575,
        "lon": 68.85775235099052,
        "alt_km": 434.6471245912662,
        "timestamp": "2025-12-07T20:38:12.866009+00:00",
        "meta_object_name": "STARLINK-35389",
        "meta_object_id": "2025-259N",
        "meta_epoch": "2025-12-07T06:00:04.999968",
        "meta_mean_motion": 15.46668967,
        "meta_eccentricity": 9.041e-05,
        "meta_inclination": 43.0006,
        "meta_ra_of_asc_node": 79.4113,
        "meta_arg_of_pericenter": 270.0561,
        "meta_mean_anomaly": 283.944,
        "meta_ephemeris_type": 0,
        "meta_classification_type": "U",
        "meta_norad_cat_id": 66434,
        "meta_element_set_no": 999,
        "meta_rev_at_epoch": 539,
        "meta_bstar": -0.044809454,
        "meta_mean_motion_dot": -0.02039379,
        "meta_mean_motion_ddot": 0,
        "tle_line1": "1 66434U 25259N   25341.25005787 -.02039379  00000+0 -44809-1 0  9995",
        "tle_line2": "2 66434  43.0006  79.4113 0000904 270.0561 283.9440 15.46668967  5392"
      },
      "geometry": {
        "type": "Point",
        "coordinates": [
          68.85775235099052,
          -6.492130784189575
        ]
      }
    },
    {
      "type": "Feature",
      "properties": {
        "norad_id": 66435,
        "name": "STARLINK-35502",
        "group": "last-30-days",
        "lat": -0.8640718939644465,
        "lon": 74.92497631232604,
        "alt_km": 430.2317547706234,
        "timestamp": "2025-12-07T20:38:12.866019+00:00",
        "meta_object_name": "STARLINK-35502",
        "meta_object_id": "2025-259P",
        "meta_epoch": "2025-12-07T06:00:04.999968",
        "meta_mean_motion": 15.48011101,
        "meta_eccentricity": 8.541e-05,
        "meta_inclination": 43.0008,
        "meta_ra_of_asc_node": 79.3987,
        "meta_arg_of_pericenter": 272.1777,
        "meta_mean_anomaly": 287.1841,
        "meta_ephemeris_type": 0,
        "meta_classification_type": "U",
        "meta_norad_cat_id": 66435,
        "meta_element_set_no": 999,
        "meta_rev_at_epoch": 539,
        "meta_bstar": -0.043323663,
        "meta_mean_motion_dot": -0.02063811,
        "meta_mean_motion_ddot": 0,
        "tle_line1": "1 66435U 25259P   25341.25005787 -.02063811  00000+0 -43324-1 0  9995",
        "tle_line2": "2 66435  43.0008  79.3987 0000854 272.1777 287.1841 15.48011101  5394"
      },
      "geometry": {
        "type": "Point",
        "coordinates": [
          74.92497631232604,
          -0.8640718939644465
        ]
      }
    },
    {
      "type": "Feature",
      "properties": {
        "norad_id": 66436,
        "name": "STARLINK-35501",
        "group": "last-30-days",
        "lat": 9.941703911064153,
        "lon": 86.65218900260126,
        "alt_km": 412.33942220973677,
        "timestamp": "2025-12-07T20:38:12.866029+00:00",
        "meta_object_name": "STARLINK-35501",
        "meta_object_id": "2025-259Q",
        "meta_epoch": "2025-12-06T16:45:00.432288",
        "meta_mean_motion": 15.50605966,
        "meta_eccentricity": 0.00014143,
        "meta_inclination": 43.0008,
        "meta_ra_of_asc_node": 82.6107,
        "meta_arg_of_pericenter": 280.4896,
        "meta_mean_anomaly": 79.5804,
        "meta_ephemeris_type": 0,
        "meta_classification_type": "U",
        "meta_norad_cat_id": 66436,
        "meta_element_set_no": 999,
        "meta_rev_at_epoch": 523,
        "meta_bstar": 0.0023641253,
        "meta_mean_motion_dot": 0.00141011,
        "meta_mean_motion_ddot": 0,
        "tle_line1": "1 66436U 25259Q   25340.69792167  .00141011  00000+0  23641-2 0  9994",
        "tle_line2": "2 66436  43.0008  82.6107 0001414 280.4896  79.5804 15.50605966  5239"
      },
      "geometry": {
        "type": "Point",
        "coordinates": [
          86.65218900260126,
          9.941703911064153
        ]
      }
    },
    {
      "type": "Feature",
      "properties": {
        "norad_id": 66437,
        "name": "STARLINK-35474",
        "group": "last-30-days",
        "lat": 11.305406014340193,
        "lon": 88.19310365572188,
        "alt_km": 411.9754536242972,
        "timestamp": "2025-12-07T20:38:12.866039+00:00",
        "meta_object_name": "STARLINK-35474",
        "meta_object_id": "2025-259R",
        "meta_epoch": "2025-12-06T16:44:30.685632",
        "meta_mean_motion": 15.50622786,
        "meta_eccentricity": 0.00020021,
        "meta_inclination": 43.0007,
        "meta_ra_of_asc_node": 82.6072,
        "meta_arg_of_pericenter": 283.6406,
        "meta_mean_anomaly": 76.4231,
        "meta_ephemeris_type": 0,
        "meta_classification_type": "U",
        "meta_norad_cat_id": 66437,
        "meta_element_set_no": 999,
        "meta_rev_at_epoch": 523,
        "meta_bstar": 0.0025207389,
        "meta_mean_motion_dot": 0.00150655,
        "meta_mean_motion_ddot": 0,
        "tle_line1": "1 66437U 25259R   25340.69757738  .00150655  00000+0  25207-2 0  9994",
        "tle_line2": "2 66437  43.0007  82.6072 0002002 283.6406  76.4231 15.50622786  5235"
      },
      "geometry": {
        "type": "Point",
        "coordinates": [
          88.19310365572188,
          11.305406014340193
        ]
      }
    },
    {
      "type": "Feature",
      "properties": {
        "norad_id": 66438,
        "name": "STARLINK-34681",
        "group": "last-30-days",
        "lat": 12.18583689847104,
        "lon": 89.20246099986112,
        "alt_km": 412.38283992011657,
        "timestamp": "2025-12-07T20:38:12.866049+00:00",
        "meta_object_name": "STARLINK-34681",
        "meta_object_id": "2025-259S",
        "meta_epoch": "2025-12-07T03:33:19.519776",
        "meta_mean_motion": 15.50632823,
        "meta_eccentricity": 0.00032717,
        "meta_inclination": 43.0028,
        "meta_ra_of_asc_node": 79.9688,
        "meta_arg_of_pericenter": 285.7326,
        "meta_mean_anomaly": 74.3173,
        "meta_ephemeris_type": 0,
        "meta_classification_type": "U",
        "meta_norad_cat_id": 66438,
        "meta_element_set_no": 999,
        "meta_rev_at_epoch": 519,
        "meta_bstar": 0.0018627532,
        "meta_mean_motion_dot": 0.0011072,
        "meta_mean_motion_ddot": 0,
        "tle_line1": "1 66438U 25259S   25341.14814259  .00110720  00000+0  18628-2 0  9996",
        "tle_line2": "2 66438  43.0028  79.9688 0003271 285.7326  74.3173 15.50632823  5194"
      },
      "geometry": {
        "type": "Point",
        "coordinates": [
          89.20246099986112,
          12.18583689847104
        ]
      }
    }
  ]
}